[{"OBJECT_NAME":"STARLINK-30569","OBJECT_ID":"2023-158T","EPOCH":"2026-03-09T22:00:01.999584","MEAN_MOTION":15.15005129,"ECCENTRICITY":0.00022494,"INCLINATION":42.9997,"RA_OF_ASC_NODE":28.3107,"ARG_OF_PERICENTER":271.6745,"MEAN_ANOMALY":126.7361,"EPHEMERIS_TYPE":0,"CLASSIFICATION_TYPE":"U","NORAD_CAT_ID":58068,"ELEMENT_SET_NO":999,"REV_AT_EPOCH":558,"BSTAR":0.0041706163,"MEAN_MOTION_DOT":0.00079957,"MEAN_MOTION_DDOT":0},{"OBJECT_NAME":"LEMUR-2-NEUROSPICY","OBJECT_ID":"2025-061E","EPOCH":"2026-03-09T21:29:47.005152","MEAN_MOTION":15.13370729,"ECCENTRICITY":0.00155025,"INCLINATION":97.5545,"RA_OF_ASC_NODE":45.3302,"ARG_OF_PERICENTER":239.5457,"MEAN_ANOMALY":120.4243,"EPHEMERIS_TYPE":0,"CLASSIFICATION_TYPE":"U","NORAD_CAT_ID":63355,"ELEMENT_SET_NO":999,"REV_AT_EPOCH":5259,"BSTAR":0.00032487858,"MEAN_MOTION_DOT":5.745e-5,"MEAN_MOTION_DDOT":0}]
